OPTICUBE 04             
1 41851U 16067D   18271.81693165  .00000062  00000-0  10767-4 0  9990
2 41851  97.9225   1.2568 0008965 170.1305 190.0094 14.96711975102592
AEROCUBE 8D             
1 41852U 16067E   18271.79830905  .00000785  00000-0  74273-4 0  9997
2 41852  97.9234   1.0719 0010013 171.4315 188.7079 14.96554504102579
AEROCUBE 8C             
1 41853U 16067F   18272.21611524  .00000196  00000-0  22598-4 0  9999
2 41853  97.9236   1.4511 0010151 171.3127 188.8272 14.96522741102630
PROMETHEUS 2-1          
1 41854U 16067G   18271.81314066  .00000545  00000-0  53048-4 0  9998
2 41854  97.9244   1.0796 0010508 172.2447 187.8938 14.96656730102579
PROMETHEUS 2-3          
1 41855U 16067H   18272.21702050  .00000306  00000-0  32113-4 0  9993
2 41855  97.9245   1.4956 0010656 171.7712 188.3685 14.96656841102631
ITF-2                   
1 41932U 98067KU  18271.90039183  .00051728  00000-0  21685-3 0  9999
2 41932  51.6281 163.3817 0003028 203.9299 156.1564 15.85030856 97162
WASEDA-SAT3             
1 41933U 98067KV  18272.08826949  .00620233  22545-3  50934-3 0  9997
2 41933  51.6238 145.5028 0007189 238.3934 121.6380 16.13366747 97415
AOBA-VELOX 3            
1 41935U 98067KX  18272.12280634  .00129364  17863-4  30823-3 0  9991
2 41935  51.6295 152.7339 0004027 207.0682 153.0117 15.96390421 97420
INS-1B                  
1 41954U 17008G   18271.72628495  .00001158  00000-0  51845-4 0  9993
2 41954  97.4360 334.7800 0009157   0.6088 359.5158 15.23265871 89769
BGUSAT                  
1 41999U 17008BD  18271.91500379  .00001734  00000-0  72349-4 0  9995
2 41999  97.4406 336.3502 0008559  18.1627 341.9914 15.25001721 89235
DIDO-2                  
1 42000U 17008BE  18271.92000159  .00000824  00000-0  37609-4 0  9990
2 42000  97.4376 335.4516 0008972  19.1456 341.0116 15.23394392 89197
PEASSS                  
1 42015U 17008BV  18271.90770458  .00000995  00000-0  43728-4 0  9998
2 42015  97.4376 336.0239 0007103  28.7406 331.4221 15.24241588 89715
AL-FARABI 1             
1 42016U 17008BW  18272.13278178  .00001267  00000-0  54117-4 0  9994
2 42016  97.4384 336.5260 0006942  28.3412 331.8202 15.24714692 89889
NAYIF-1 (EO-88)         
1 42017U 17008BX  18272.12534088  .00001243  00000-0  53087-4 0  9998
2 42017  97.4382 336.5265 0006939  28.5149 331.6467 15.24740232 89901
HAVELSAT                
1 42700U 98067LH  18272.01008283  .00038110  00000-0  22475-3 0  9991
2 42700  51.6297 181.4963 0000988 276.8926  83.1962 15.77775386 78372
CXBN-2                  
1 42704U 98067LM  18271.99832187  .00039269  00000-0  23649-3 0  9999
2 42704  51.6319 182.9565 0002417 165.6740 194.4329 15.77287033 78272
ICECUBE                 
1 42705U 98067LN  18272.18926758  .01148458  93138-3  79907-3 0  9997
2 42705  51.6458 161.6808 0007943 260.2735  99.7385 16.15842439 78635
PHOENIX                 
1 42706U 98067LP  18272.03252451  .00025787  00000-0  18347-3 0  9996
2 42706  51.6351 185.4591 0001650 149.8513 210.2581 15.73682389 78239
X-CUBESAT               
1 42707U 98067LQ  18272.18800552  .00047870  00000-0  26442-3 0  9996
2 42707  51.6308 179.5897 0002141 165.0546 195.0519 15.79131365 78316
QBEE50-LTU-OC           
1 42708U 98067LR  18272.14624254  .00041880  00000-0  25032-3 0  9995
2 42708  51.6299 181.6669 0001553 142.8955 217.2153 15.77428350 78244
ALTAIR PATHFINDER       
1 42711U 98067LS  18272.16477902  .00015691  00000-0  14794-3 0  9991
2 42711  51.6352 196.1489 0003230 190.4795 169.6134 15.67254818 77764
SHARC                   
1 42712U 98067LT  18272.05030825  .00027951  00000-0  23882-3 0  9999
2 42712  51.6357 197.7025 0002103 166.0880 194.0176 15.69258001 77976
ZA-AEROSAT              
1 42713U 98067LU  18272.02774315  .00024863  00000-0  18863-3 0  9998
2 42713  51.6333 189.1672 0002316 164.5986 195.5083 15.72188801 77843
CSUNSAT 1               
1 42715U 98067LW  18271.99126671  .00027818  00000-0  20081-3 0  9999
2 42715  51.6330 188.1915 0003451 178.6872 181.4136 15.73292048 77856
SPACECUBE               
1 42717U 98067LY  18272.18202489  .00041071  00000-0  24657-3 0  9995
2 42717  51.6258 181.8463 0000596 230.1965 129.8983 15.77337937 77328
HOOPOE                  
1 42718U 98067LZ  18272.15150897  .00067114  00000-0  30739-3 0  9992
2 42718  51.6274 176.3360 0001907 181.2643 178.8355 15.83062572 77399
NJUST-1                 
1 42722U 98067MB  18272.03254207  .00020631  00000-0  16628-3 0  9998
2 42722  51.6340 191.4887 0003193 252.2074 107.8576 15.70869841 76886
UNSW-ECO                
1 42723U 98067MC  18272.19337445  .00081541  00000-0  33258-3 0  9997
2 42723  51.6366 175.2271 0002219 210.7697 149.3177 15.85424317 77093
LILACSAT-1              
1 42725U 98067ME  18271.99331370  .00034423  00000-0  22960-3 0  9992
2 42725  51.6341 186.6945 0002008 239.4649 120.6153 15.75019887 76842
NSIGHT-1                
1 42726U 98067MF  18272.06335623  .00010874  00000-0  12129-3 0  9997
2 42726  51.6383 203.0714 0003794 258.0249 102.0320 15.63383834 76644
SNUSAT-1                
1 42727U 98067MG  18272.19722552  .00033836  00000-0  22624-3 0  9997
2 42727  51.6326 185.7286 0004246 209.1095 150.9668 15.74964456 76847
I-INSPIRE II            
1 42731U 98067ML  18272.13517136  .00095495  00000-0  36794-3 0  9998
2 42731  51.6327 173.9654 0004653 183.7109 176.3862 15.86526999 76887
POLYITAN-2-SAU          
1 42732U 98067MM  18272.14673486  .00045447  00000-0  25494-3 0  9998
2 42732  51.6316 180.8760 0004472 192.5323 167.5567 15.78802555 76796
SNUSAT-1B               
1 42733U 98067MN  18272.17167851  .00038370  00000-0  24288-3 0  9993
2 42733  51.6314 184.0847 0004209 198.5797 161.5050 15.76159998 76757
EXALTA-1                
1 42734U 98067MP  18272.16013849  .00110736  00000-0  37604-3 0  9993
2 42734  51.6237 172.4937 0003872 207.7060 152.3740 15.89028439 76858
BEEAGLESAT              
1 42736U 98067MR  18272.03332730  .00029581  00000-0  20877-3 0  9995
2 42736  51.6327 187.6771 0003231 241.4006 118.6668 15.73786077 76753
UCLSAT                  
1 42765U 17036A   18272.15413646  .00001002  00000-0  46712-4 0  9998
2 42765  97.3902 330.2800 0013375  74.8680 285.4034 15.22091297 70522
LITUANICASAT-2          
1 42768U 17036D   18271.71319380  .00001874  00000-0  85439-4 0  9998
2 42768  97.3923 329.4084 0017073  66.7376 293.5656 15.21758970 70306
AALTO-1                 
1 42775U 17036L   18272.18766061  .00000667  00000-0  33193-4 0  9999
2 42775  97.3893 329.6132 0015650  63.8929 296.3915 15.20910634 70302
URSA MAIOR              
1 42776U 17036M   18272.16833799  .00000715  00000-0  35240-4 0  9990
2 42776  97.3900 329.6680 0015494  64.1965 296.0867 15.21005180 70305
COMPASS 2               
1 42777U 17036N   18271.69945756  .00001529  00000-0  69748-4 0  9999
2 42777  97.3926 329.7770 0014399  68.6780 291.5992 15.22048395 70251
DIAMOND RED             
1 42783U 17036U   18271.72072631  .00000925  00000-0  43891-4 0  9993
2 42783  97.3904 329.6479 0014011  76.1862 284.0932 15.21662389 70250
PEGASUS                 
1 42784U 17036V   18271.81041183  .00001063  00000-0  49643-4 0  9997
2 42784  97.3905 329.8417 0013917  75.8906 284.3876 15.21890147 70272
DIAMOND GREEN           
1 42785U 17036W   18271.65371876  .00000941  00000-0  44611-4 0  9999
2 42785  97.3905 329.5984 0013916  76.9694 283.3095 15.21662692 70313
DIAMOND BLUE            
1 42786U 17036X   18271.38983643  .00000954  00000-0  45164-4 0  9999
2 42786  97.3905 329.3389 0013761  78.0558 282.2220 15.21663547 70195
NUDTSAT                 
1 42787U 17036Y   18271.88340176  .00001451  00000-0  65400-4 0  9991
2 42787  97.3914 330.2231 0013408  75.3348 284.9374 15.22566909 70147
SUCHAI                  
1 42788U 17036Z   18272.14254527  .00001151  00000-0  53052-4 0  9993
2 42788  97.3906 330.3133 0013505  74.7469 285.5259 15.22197837 70404
SKCUBE                  
1 42789U 17036AA  18271.75065571  .00001164  00000-0  53718-4 0  9992
2 42789  97.3904 329.9126 0013368  75.9793 284.2929 15.22142602 70263
VZLUSAT-1               
1 42790U 17036AB  18271.74007490  .00001528  00000-0  68675-4 0  9991
2 42790  97.3911 330.0885 0012983  76.1618 284.1062 15.22581522 70275
ROBUSTA-1B              
1 42792U 17036AD  18271.70922431  .00001213  00000-0  55577-4 0  9998
2 42792  97.3904 329.9559 0012949  77.0328 283.2353 15.22298134 70271
CICERO 6                
1 42793U 17036AE  18271.71659392  .00000963  00000-0  45038-4 0  9995
2 42793  97.3894 329.9184 0012126  78.1130 282.1465 15.22074579 70349
D-SAT                   
1 42794U 17036AF  18272.13893582  .00000168  00000-0  20440-4 0  9991
2 42794  97.5803 322.8066 0125497 296.5984  62.2421 14.90933714 69214
TOKI                    
1 42820U 98067MU  18271.91321496  .00028669  00000-0  21220-3 0  9991
2 42820  51.6329 191.3925 0003116 163.1508 196.9594 15.72685258 70176
MAZAALAI (NUMSAT-1)     
1 42822U 98067MW  18272.16000573  .00027550  00000-0  20773-3 0  9991
2 42822  51.6329 190.8025 0002847 167.5066 192.6004 15.72270499 70165
BRAC ONNESHA            
1 42823U 98067MX  18271.95617590  .00028703  00000-0  21447-3 0  9991
2 42823  51.6341 191.7153 0003905 199.0476 161.0377 15.72458155 70152
NIGERIAEDUSAT-1         
1 42824U 98067MY  18272.06094098  .00026928  00000-0  20438-3 0  9993
2 42824  51.6347 191.6886 0003878 198.7505 161.3351 15.72124866 70131
CORVUS BC2              
1 42846U 17042X   18271.76698321 -.00000007  00000-0  46024-5 0  9998
2 42846  97.5858 170.8421 0008840 203.2488 156.8333 14.91861127 65817
CORVUS BC1              
1 42847U 17042Y   18272.20726693  .00000304  00000-0  35345-4 0  9995
2 42847  97.5858 171.3309 0008551 201.0670 159.0199 14.91960393 65873
SILU-1 (SILKROAD 1)     
1 42903U 17021F   18271.83895957  .00035891  00000-0  21483-3 0  9999
2 42903  42.7758  58.1019 0015228 315.4542 164.9723 15.76985019 66262
